{
  "type": "FeatureCollection",
  "features": [
    {
      "type": "Feature",
      "properties": {
        "norad_id": 34420,
        "name": "COSMOS 2251 DEB",
        "group": "cosmos-2251-debris",
        "lat": -65.00508468781332,
        "lon": -26.633102669955825,
        "alt_km": 599.9111312640398,
        "timestamp": "2025-12-06T18:50:10.564037+00:00",
        "meta_object_name": "COSMOS 2251 DEB",
        "meta_object_id": "1993-036RM",
        "meta_epoch": "2025-12-06T03:13:30.407808",
        "meta_mean_motion": 14.68265457,
        "meta_eccentricity": 0.01068887,
        "meta_inclination": 74.0331,
        "meta_ra_of_asc_node": 116.7352,
        "meta_arg_of_pericenter": 239.3876,
        "meta_mean_anomaly": 174.0492,
        "meta_ephemeris_type": 0,
        "meta_classification_type": "U",
        "meta_norad_cat_id": 34420,
        "meta_element_set_no": 999,
        "meta_rev_at_epoch": 89673,
        "meta_bstar": 0.00043723842,
        "meta_mean_motion_dot": 2.714e-05,
        "meta_mean_motion_ddot": 0,
        "tle_line1": "1 34420U 93036RM  25340.13437972  .00002714  00000+0  43724-3 0  9990",
        "tle_line2": "2 34420  74.0331 116.7352 0106888 239.3876 174.0492 14.68265457896735"
      },
      "geometry": {
        "type": "Point",
        "coordinates": [
          -26.633102669955825,
          -65.00508468781332
        ]
      }
    },
    {
      "type": "Feature",
      "properties": {
        "norad_id": 34425,
        "name": "COSMOS 2251 DEB",
        "group": "cosmos-2251-debris",
        "lat": 64.81475063380432,
        "lon": -151.61125551897433,
        "alt_km": 677.9579197357443,
        "timestamp": "2025-12-06T18:50:10.564046+00:00",
        "meta_object_name": "COSMOS 2251 DEB",
        "meta_object_id": "1993-036RS",
        "meta_epoch": "2025-12-06T05:11:50.426304",
        "meta_mean_motion": 14.62067771,
        "meta_eccentricity": 0.00252905,
        "meta_inclination": 74.0209,
        "meta_ra_of_asc_node": 67.0188,
        "meta_arg_of_pericenter": 195.1124,
        "meta_mean_anomaly": 164.929,
        "meta_ephemeris_type": 0,
        "meta_classification_type": "U",
        "meta_norad_cat_id": 34425,
        "meta_element_set_no": 999,
        "meta_rev_at_epoch": 88645,
        "meta_bstar": 0.0011023055,
        "meta_mean_motion_dot": 5.535e-05,
        "meta_mean_motion_ddot": 0,
        "tle_line1": "1 34425U 93036RS  25340.21655586  .00005535  00000+0  11023-2 0  9997",
        "tle_line2": "2 34425  74.0209  67.0188 0025290 195.1124 164.9290 14.62067771886456"
      },
      "geometry": {
        "type": "Point",
        "coordinates": [
          -151.61125551897433,
          64.81475063380432
        ]
      }
    },
    {
      "type": "Feature",
      "properties": {
        "norad_id": 34429,
        "name": "COSMOS 2251 DEB",
        "group": "cosmos-2251-debris",
        "lat": -58.64562080843631,
        "lon": 152.77871125809287,
        "alt_km": 456.844928424267,
        "timestamp": "2025-12-06T18:50:10.564057+00:00",
        "meta_object_name": "COSMOS 2251 DEB",
        "meta_object_id": "1993-036RW",
        "meta_epoch": "2025-12-06T01:03:12.559968",
        "meta_mean_motion": 15.38278003,
        "meta_eccentricity": 0.00055805,
        "meta_inclination": 73.9708,
        "meta_ra_of_asc_node": 182.5359,
        "meta_arg_of_pericenter": 26.5927,
        "meta_mean_anomaly": 128.9917,
        "meta_ephemeris_type": 0,
        "meta_classification_type": "U",
        "meta_norad_cat_id": 34429,
        "meta_element_set_no": 999,
        "meta_rev_at_epoch": 89345,
        "meta_bstar": 0.0055960701,
        "meta_mean_motion_dot": 0.00217382,
        "meta_mean_motion_ddot": 0,
        "tle_line1": "1 34429U 93036RW  25340.04389537  .00217382  00000+0  55961-2 0  9996",
        "tle_line2": "2 34429  73.9708 182.5359 0005580  26.5927 128.9917 15.38278003893453"
      },
      "geometry": {
        "type": "Point",
        "coordinates": [
          152.77871125809287,
          -58.64562080843631
        ]
      }
    },
    {
      "type": "Feature",
      "properties": {
        "norad_id": 34430,
        "name": "COSMOS 2251 DEB",
        "group": "cosmos-2251-debris",
        "lat": 12.289846249664494,
        "lon": -42.078951751724986,
        "alt_km": 718.8523637874123,
        "timestamp": "2025-12-06T18:50:10.564066+00:00",
        "meta_object_name": "COSMOS 2251 DEB",
        "meta_object_id": "1993-036RX",
        "meta_epoch": "2025-12-06T00:25:55.025472",
        "meta_mean_motion": 14.39598247,
        "meta_eccentricity": 0.0060038,
        "meta_inclination": 74.0519,
        "meta_ra_of_asc_node": 315.7637,
        "meta_arg_of_pericenter": 27.0843,
        "meta_mean_anomaly": 333.3422,
        "meta_ephemeris_type": 0,
        "meta_classification_type": "U",
        "meta_norad_cat_id": 34430,
        "meta_element_set_no": 999,
        "meta_rev_at_epoch": 87858,
        "meta_bstar": 0.00089362873,
        "meta_mean_motion_dot": 2.826e-05,
        "meta_mean_motion_ddot": 0,
        "tle_line1": "1 34430U 93036RX  25340.01799798  .00002826  00000+0  89363-3 0  9998",
        "tle_line2": "2 34430  74.0519 315.7637 0060038  27.0843 333.3422 14.39598247878583"
      },
      "geometry": {
        "type": "Point",
        "coordinates": [
          -42.078951751724986,
          12.289846249664494
        ]
      }
    },
    {
      "type": "Feature",
      "properties": {
        "norad_id": 34431,
        "name": "COSMOS 2251 DEB",
        "group": "cosmos-2251-debris",
        "lat": 31.422014138183634,
        "lon": -4.0672401860049465,
        "alt_km": 749.5723817839225,
        "timestamp": "2025-12-06T18:50:10.564076+00:00",
        "meta_object_name": "COSMOS 2251 DEB",
        "meta_object_id": "1993-036RY",
        "meta_epoch": "2025-12-05T23:39:49.669056",
        "meta_mean_motion": 14.28742099,
        "meta_eccentricity": 0.00686084,
        "meta_inclination": 74.0744,
        "meta_ra_of_asc_node": 187.424,
        "meta_arg_of_pericenter": 174.9453,
        "meta_mean_anomaly": 185.2405,
        "meta_ephemeris_type": 0,
        "meta_classification_type": "U",
        "meta_norad_cat_id": 34431,
        "meta_element_set_no": 999,
        "meta_rev_at_epoch": 87046,
        "meta_bstar": 0.00091812939,
        "meta_mean_motion_dot": 2.345e-05,
        "meta_mean_motion_ddot": 0,
        "tle_line1": "1 34431U 93036RY  25339.98599154  .00002345  00000+0  91813-3 0  9996",
        "tle_line2": "2 34431  74.0744 187.4240 0068608 174.9453 185.2405 14.28742099870466"
      },
      "geometry": {
        "type": "Point",
        "coordinates": [
          -4.0672401860049465,
          31.422014138183634
        ]
      }
    },
    {
      "type": "Feature",
      "properties": {
        "norad_id": 34432,
        "name": "COSMOS 2251 DEB",
        "group": "cosmos-2251-debris",
        "lat": -11.335622854199183,
        "lon": 109.48183620819164,
        "alt_km": 1004.5041139846653,
        "timestamp": "2025-12-06T18:50:10.564086+00:00",
        "meta_object_name": "COSMOS 2251 DEB",
        "meta_object_id": "1993-036RZ",
        "meta_epoch": "2025-12-05T19:29:29.099040",
        "meta_mean_motion": 14.02859774,
        "meta_eccentricity": 0.01830016,
        "meta_inclination": 73.8285,
        "meta_ra_of_asc_node": 114.5295,
        "meta_arg_of_pericenter": 198.2737,
        "meta_mean_anomaly": 278.4695,
        "meta_ephemeris_type": 0,
        "meta_classification_type": "U",
        "meta_norad_cat_id": 34432,
        "meta_element_set_no": 999,
        "meta_rev_at_epoch": 85587,
        "meta_bstar": 0.0022892359,
        "meta_mean_motion_dot": 4.085e-05,
        "meta_mean_motion_ddot": 0,
        "tle_line1": "1 34432U 93036RZ  25339.81214235  .00004085  00000+0  22892-2 0  9996",
        "tle_line2": "2 34432  73.8285 114.5295 0183001 198.2737 278.4695 14.02859774855879"
      },
      "geometry": {
        "type": "Point",
        "coordinates": [
          109.48183620819164,
          -11.335622854199183
        ]
      }
    },
    {
      "type": "Feature",
      "properties": {
        "norad_id": 34433,
        "name": "COSMOS 2251 DEB",
        "group": "cosmos-2251-debris",
        "lat": 21.346376738100204,
        "lon": -20.948267653215236,
        "alt_km": 940.9216273808925,
        "timestamp": "2025-12-06T18:50:10.564097+00:00",
        "meta_object_name": "COSMOS 2251 DEB",
        "meta_object_id": "1993-036SA",
        "meta_epoch": "2025-12-05T23:23:16.964160",
        "meta_mean_motion": 14.1280661,
        "meta_eccentricity": 0.01517938,
        "meta_inclination": 74.0117,
        "meta_ra_of_asc_node": 166.9196,
        "meta_arg_of_pericenter": 306.4385,
        "meta_mean_anomaly": 52.284,
        "meta_ephemeris_type": 0,
        "meta_classification_type": "U",
        "meta_norad_cat_id": 34433,
        "meta_element_set_no": 999,
        "meta_rev_at_epoch": 85854,
        "meta_bstar": 0.0020892671,
        "meta_mean_motion_dot": 4.307e-05,
        "meta_mean_motion_ddot": 0,
        "tle_line1": "1 34433U 93036SA  25339.97450190  .00004307  00000+0  20893-2 0  9992",
        "tle_line2": "2 34433  74.0117 166.9196 0151793 306.4385  52.2840 14.12806610858542"
      },
      "geometry": {
        "type": "Point",
        "coordinates": [
          -20.948267653215236,
          21.346376738100204
        ]
      }
    }
  ]
}